[{"OBJECT_NAME":"STARLINK-34090","OBJECT_ID":"2025-099AA","EPOCH":"2026-03-09T06:51:12.828096","MEAN_MOTION":15.27579691,"ECCENTRICITY":0.00014427,"INCLINATION":43.0016,"RA_OF_ASC_NODE":175.1071,"ARG_OF_PERICENTER":278.2698,"MEAN_ANOMALY":81.799,"EPHEMERIS_TYPE":0,"CLASSIFICATION_TYPE":"U","NORAD_CAT_ID":63976,"ELEMENT_SET_NO":999,"REV_AT_EPOCH":4722,"BSTAR":0.00091973223,"MEAN_MOTION_DOT":0.00025133,"MEAN_MOTION_DDOT":0},{"OBJECT_NAME":"USA 55","OBJECT_ID":"1990-028B","EPOCH":"2026-03-09T23:32:27.967200","MEAN_MOTION":15.43003152,"ECCENTRICITY":0.00579189,"INCLINATION":94.0887,"RA_OF_ASC_NODE":87.6293,"ARG_OF_PERICENTER":152.9949,"MEAN_ANOMALY":207.4341,"EPHEMERIS_TYPE":0,"CLASSIFICATION_TYPE":"U","NORAD_CAT_ID":20547,"ELEMENT_SET_NO":999,"REV_AT_EPOCH":98658,"BSTAR":0.00013659834,"MEAN_MOTION_DOT":6.373e-5,"MEAN_MOTION_DDOT":0}]
